SL-12 R/B(2)            
1 15772U 85042D   26187.45430374  .00000122  00000+0  76370-4 0  9996
2 15772  71.1060 196.8091 0037158 299.0376 212.9024 14.22009605131276
SL-14 R/B               
1 15945U 85069B   26188.16112727  .00000374  00000+0  39380-4 0  9994
2 15945  82.5269 272.5818 0019518 152.4603 207.7652 14.86531221190581
SL-16 R/B               
1 16182U 85097B   26188.10110491 -.00000259  00000+0 -10580-3 0  9993
2 16182  71.0019 249.1538 0005325  67.6367 310.3299 14.16613430104146
SL-14 R/B               
1 16496U 86006B   26187.97034681  .00000448  00000+0  44869-4 0  9998
2 16496  82.5276 147.4964 0074919 236.5438 122.8602 14.86963737166934
COSMOS 1743             
1 16719U 86034A   26187.35803757  .00055015  00000+0  47752-3 0  9990
2 16719  82.5278 308.3228 0004977 205.5763 154.5253 15.68872548198792
SL-14 R/B               
1 16792U 86046B   26187.88675682  .00000421  00000+0  45555-4 0  9997
2 16792  82.4832 327.5601 0022777 190.3579 169.7171 14.85686066144109
SL-14 R/B               
1 16882U 86055B   26188.03193703  .00000358  00000+0  38426-4 0  9992
2 16882  82.5197  14.4725 0017498 299.7077 222.5798 14.85736494137087
AJISAI (EGS)            
1 16908U 86061A   26188.15317990 -.00000097  00000+0  45240-5 0  9991
2 16908  50.0096  86.0005 0011114 231.3663 293.5642 12.44516690482875
SL-14 R/B               
1 17567U 87024B   26187.87683144  .00000396  00000+0  42174-4 0  9991
2 17567  82.5291 340.7420 0017171 222.5053 137.4835 14.86227313105836
COSMOS 1833             
1 17589U 87027A   26188.14168147  .00000182  00000+0  12295-3 0  9993
2 17589  70.9211  74.9275 0023679  21.8605 338.3520 14.13063646 27192
SL-16 R/B               
1 17590U 87027B   26187.90908697 -.00000214  00000+0 -82117-4 0  9999
2 17590  71.0031  25.2686 0007105 290.7619  69.2743 14.17174521 32236
SL-14 R/B               
1 17912U 87038B   26188.00052832  .00000359  00000+0  38657-4 0  9990
2 17912  82.5004 184.4085 0020533 127.4662 232.8426 14.85457604 96941
COSMOS 1844             
1 17973U 87041A   26187.90699057  .00000356  00000+0  20943-3 0  9990
2 17973  70.8987 142.7112 0031838 206.9743 152.9725 14.14576024 20445
SL-14 R/B               
1 18153U 87055B   26188.09107744  .00000303  00000+0  32078-4 0  9999
2 18153  82.4977 236.4660 0020043 343.0325  17.0218 14.85723677 87669
COSMOS 1867             
1 18187U 87060A   26187.69427341 -.00000032  00000+0  25473-4 0  9996
2 18187  65.0119 333.4268 0016958 282.0909  77.8275 14.31517874 36979
SL-14 R/B               
1 18749U 88001B   26188.16186231  .00000322  00000+0  34369-4 0  9994
2 18749  82.5130  82.9819 0017429 198.5913 161.4668 14.85623283 59767
COSMOS 1933             
1 18958U 88020A   26188.06639825  .00003331  00000+0  15843-3 0  9996
2 18958  82.5133 132.7483 0005569 127.9211 232.2527 15.18851129 68346
SL-3 R/B                
1 19046U 88032B   26188.11236814  .00003298  00000+0  15075-3 0  9994
2 19046  97.5268 171.1353 0025701 173.1480 187.0112 15.20990474 70254
SL-16 R/B               
1 19120U 88039B   26187.99116876  .00000066  00000+0  53881-4 0  9992
2 19120  71.0130 176.2820 0021073 162.4747 197.7110 14.19632005975319
COSMOS 1953             
1 19210U 88050A   26187.63784476  .00005491  00000+0  18613-3 0  9993
2 19210  82.5065  38.4148 0012132  66.9975 293.2544 15.30255230 55960
SL-8 R/B                
1 19257U 88053B   26188.16088632  .00000154  00000+0  58385-4 0  9999
2 19257  74.0467 252.2397 0019465  40.3863 349.0507 14.38975547993780
COSMOS 1975             
1 19573U 88093A   26187.91270411  .00004872  00000+0  16837-3 0  9990
2 19573  82.5199 357.8550 0012537 108.0420 252.2188 15.29594119 37629
SL-14 R/B               
1 19574U 88093B   26187.88552185  .00000342  00000+0  36476-4 0  9998
2 19574  82.5319 290.1523 0020760   8.1264 131.0984 14.85756293 18717
SL-16 R/B               
1 19650U 88102B   26188.13602375 -.00000189  00000+0 -71429-4 0  9998
2 19650  70.9995 260.1649 0014730 197.8387 162.2221 14.16169164943807
INTERCOSMOS 24          
1 20261U 89080A   26187.95070830  .00000490  00000+0  13904-3 0  9994
2 20261  82.6048  26.7825 1187636  16.0793 347.4806 12.59687518681817
SL-14 R/B               
1 20262U 89080C   26188.16214752  .00000099  00000+0  29616-4 0  9995
2 20262  82.5942  96.4743 1228439 271.6759  74.4350 12.50577340675086
DELTA 1 R/B             
1 20323U 89089B   26188.01442360  .00000276  00000+0  76554-4 0  9994
2 20323  97.0634  16.3996 0070545 105.2394 255.6618 14.50744229913037
ARIANE 40 R/B           
1 20443U 90005H   26188.12675689  .00000202  00000+0  77609-4 0  9992
2 20443  98.2948 245.1219 0009710 198.2846 161.7995 14.39938063909994
DELTA 2 R/B(1)          
1 20453U 90008B   26188.15130584  .00086839  00000+0  55418-3 0  9992
2 20453  35.6000 101.7768 0062651 300.8841  58.5750 15.72328797944844
COSMOS 2058             
1 20465U 90010A   26187.78978676  .00002025  00000+0  11579-3 0  9993
2 20465  82.4679 290.0239 0008043 285.8486  74.1857 15.12130715960234
SL-14 R/B               
1 20466U 90010B   26187.92860138  .00000362  00000+0  40941-4 0  9991
2 20466  82.5027 155.4049 0018152 266.7519  93.1619 14.83659471946168
